NORAD_CAT_ID,OBJECT_NAME,OBJECT_TYPE,EPOCH,MEAN_MOTION,ECCENTRICITY,INCLINATION,RA_OF_ASC_NODE,ARG_OF_PERICENTER,MEAN_ANOMALY,BSTAR,MEAN_MOTION_DOT,MEAN_MOTION_DDOT,TLE_LINE0,TLE_LINE1,TLE_LINE2,SEMIMAJOR_AXIS,PERIOD,APOGEE,PERIGEE,DECAYED
55788.0,STARLINK-5804,PAYLOAD,2023-08-07 14:54:17,15.69936417,0.0003724,69.9974,74.1651,258.2936,101.7842,2.1366e-05,2.358e-05,0.0,0 STARLINK-5804,1 55788U 23028AZ  23219.62104087  .00002358  00000-0  21366-4 0  9993,2 55788  69.9974  74.1651 0003724 258.2936 101.7842 15.69936417 25285,6737.216,91.723,361.59,356.572,0.0
55788.0,STARLINK-5804,PAYLOAD,2023-08-08 00:04:49,15.69929308,0.0003951,69.9966,73.0891,266.7103,93.364,1.2342e-05,1.272e-05,0.0,0 STARLINK-5804,1 55788U 23028AZ  23220.00334645  .00001272  00000-0  12342-4 0  9990,2 55788  69.9966  73.0891 0003951 266.7103  93.3640 15.69929308 25342,6737.236,91.724,361.763,356.439,0.0
55788.0,STARLINK-5804,PAYLOAD,2023-08-08 07:43:35,15.69916481,0.0003611,69.9986,72.1936,265.8891,94.1892,1.0202e-05,1.014e-05,0.0,0 STARLINK-5804,1 55788U 23028AZ  23220.32193975  .00001014  00000-0  10202-4 0  9991,2 55788  69.9986  72.1936 0003611 265.8891  94.1892 15.69916481 25392,6737.273,91.725,361.571,356.705,0.0
55788.0,STARLINK-5804,PAYLOAD,2023-08-09 00:32:51,15.69925326,0.0003512,69.9979,70.2224,264.8139,95.2656,4.6743e-06,3.49e-06,0.0,0 STARLINK-5804,1 55788U 23028AZ  23221.02282298  .00000349  00000-0  46743-5 0  9996,2 55788  69.9979  70.2224 0003512 264.8139  95.2656 15.69925326 25508,6737.248,91.724,361.479,356.747,0.0
55788.0,STARLINK-5804,PAYLOAD,2023-08-10 07:07:55,15.69878035,0.0003991,69.9972,66.6405,271.6765,88.3974,7.8801e-05,9.256e-05,0.0,0 STARLINK-5804,1 55788U 23028AZ  23222.29716907  .00009256  00000-0  78801-4 0  9990,2 55788  69.9972  66.6405 0003991 271.6765  88.3974 15.69878035 25705,6737.383,91.727,361.937,356.559,0.0
55788.0,STARLINK-5804,PAYLOAD,2023-08-10 14:46:39,15.69924952,0.0003748,69.9969,65.7452,269.4359,90.6407,8.6845e-06,8.31e-06,0.0,0 STARLINK-5804,1 55788U 23028AZ  23222.61573639  .00000831  00000-0  86845-5 0  9997,2 55788  69.9969  65.7452 0003748 269.4359  90.6407 15.69924952 25759,6737.249,91.724,361.639,356.589,0.0
55788.0,STARLINK-5804,PAYLOAD,2023-08-11 16:46:27,15.69920614,0.0003686,69.9967,62.6981,265.2336,94.8439,3.8172e-06,2.46e-06,0.0,0 STARLINK-5804,1 55788U 23028AZ  23223.69892448  .00000246  00000-0  38172-5 0  9998,2 55788  69.9967  62.6981 0003686 265.2336  94.8439 15.69920614 25921,6737.261,91.724,361.609,356.643,0.0
55788.0,STARLINK-5804,PAYLOAD,2023-08-11 22:53:35,15.69816697,0.0003425,69.9966,61.9809,272.9785,87.1019,-0.0001112,-0.00013503,0.0,0 STARLINK-5804,1 55788U 23028AZ  23223.95388413 -.00013503  00000-0 -11120-3 0  9993,2 55788  69.9966  61.9809 0003425 272.9785  87.1019 15.69816697 25963,6737.558,91.73,361.731,357.116,0.0
55788.0,STARLINK-5804,PAYLOAD,2023-08-12 12:39:33,15.69709897,0.0005348,69.9969,60.3715,249.386,110.6762,-0.00020891,-0.0002505,0.0,0 STARLINK-5804,1 55788U 23028AZ  23224.52747071 -.00025050  00000-0 -20891-3 0  9991,2 55788  69.9969  60.3715 0005348 249.3860 110.6762 15.69709897 26054,6737.864,91.737,363.332,356.126,0.0
55788.0,STARLINK-5804,PAYLOAD,2023-08-12 21:50:14,15.69633944,0.0007164,69.9967,59.2967,255.6917,104.3483,-0.00026449,-0.00031558,0.0,0 STARLINK-5804,1 55788U 23028AZ  23224.90989573 -.00031558  00000-0 -26449-3 0  9993,2 55788  69.9967  59.2967 0007164 255.6917 104.3483 15.69633944 26115,6738.081,91.741,364.774,355.119,0.0
55788.0,STARLINK-5804,PAYLOAD,2023-08-13 14:00:01,15.66416546,0.0003412,69.9998,57.413,266.5374,289.1045,-0.0096923,-0.00920278,0.0,0 STARLINK-5804,1 55788U 23028AZ  23225.58334491 -.00920278  00000-0 -96923-2 0  9990,2 55788  69.9998  57.4130 0003412 266.5374 289.1045 15.66416546 26212,6747.305,91.93,371.472,366.868,0.0
55788.0,STARLINK-5804,PAYLOAD,2023-08-14 14:00:01,15.64464485,0.000349,69.9993,54.6197,269.4794,159.9657,-0.010632,-0.00932321,0.0,0 STARLINK-5804,1 55788U 23028AZ  23226.58334491 -.00932321  00000-0 -10632-1 0  9995,2 55788  69.9993  54.6197 0003490 269.4794 159.9657 15.64464485 26376,6752.916,92.044,377.138,372.425,0.0
55788.0,STARLINK-5804,PAYLOAD,2023-08-15 18:00:00,15.62168307,0.0003489,69.9995,51.3714,273.6099,239.7192,-0.011549,-0.00925744,0.0,0 STARLINK-5804,1 55788U 23028AZ  23227.75001157 -.00925744  00000-0 -11549-1 0  9994,2 55788  69.9995  51.3714 0003489 273.6099 239.7192 15.62168307 26553,6759.532,92.18,383.755,379.039,0.0
55788.0,STARLINK-5804,PAYLOAD,2023-08-16 22:00:00,15.59858595,0.0003361,69.9994,48.1338,275.7073,311.9177,-0.011858,-0.00874015,0.0,0 STARLINK-5804,1 55788U 23028AZ  23228.91667824 -.00874015  00000-0 -11858-1 0  9999,2 55788  69.9994  48.1338 0003361 275.7073 311.9177 15.59858595 26739,6766.203,92.316,390.342,385.794,0.0
55788.0,STARLINK-5804,PAYLOAD,2023-08-17 14:00:01,15.58603591,0.0003648,69.9997,46.2893,270.8001,97.8087,-0.013588,-0.00947439,0.0,0 STARLINK-5804,1 55788U 23028AZ  23229.58334491 -.00947439  00000-0 -13588-1 0  9997,2 55788  69.9997  46.2893 0003648 270.8001  97.8087 15.58603591 26847,6769.835,92.39,394.169,389.23,0.0
55788.0,STARLINK-5804,PAYLOAD,2023-08-18 14:00:01,15.56640022,0.0003525,69.9999,43.5285,270.1798,304.0717,-0.01444,-0.00936179,0.0,0 STARLINK-5804,1 55788U 23028AZ  23230.58334491 -.00936179  00000-0 -14440-1 0  9996,2 55788  69.9999  43.5285 0003525 270.1798 304.0717 15.56640022 26991,6775.526,92.507,399.78,395.003,0.0
55788.0,STARLINK-5804,PAYLOAD,2023-08-19 14:00:01,15.54687986,0.0003566,70.0,40.7763,273.6598,139.2567,-0.015749,-0.00948504,0.0,0 STARLINK-5804,1 55788U 23028AZ  23231.58335648 -.00948504  00000-0 -15749-1 0  9990,2 55788  70.0000  40.7763 0003566 273.6598 139.2567 15.54687986 27156,6781.197,92.623,405.48,400.644,0.0
55788.0,STARLINK-5804,PAYLOAD,2023-08-20 04:00:00,15.53523438,0.0003506,69.9999,39.1744,276.9789,158.4853,-0.016057,-0.00928636,0.0,0 STARLINK-5804,1 55788U 23028AZ  23232.16667824 -.00928636  00000-0 -16057-1 0  9996,2 55788  69.9999  39.1744 0003506 276.9789 158.4853 15.53523438 27244,6784.585,92.693,408.829,404.072,0.0
55788.0,STARLINK-5804,PAYLOAD,2023-08-20 22:00:00,15.5201321,0.0003597,70.0003,37.1191,278.4287,28.2937,-0.015058,-0.0083305,0.0,0 STARLINK-5804,1 55788U 23028AZ  23232.91667824 -.00833050  00000-0 -15058-1 0  9994,2 55788  70.0003  37.1191 0003597 278.4287  28.2937 15.52013210 27368,6788.986,92.783,413.293,408.409,0.0
55788.0,STARLINK-5804,PAYLOAD,2023-08-21 04:00:00,15.51387694,0.0003407,70.0001,36.4349,276.8049,346.1389,-0.0046983,-0.0026857,0.0,0 STARLINK-5804,1 55788U 23028AZ  23233.16667824 -.00268570  00000-0 -46983-2 0  9993,2 55788  70.0001  36.4349 0003407 276.8049 346.1389 15.51387694 27408,6790.811,92.82,414.989,410.362,0.0
55788.0,STARLINK-5804,PAYLOAD,2023-08-21 12:00:00,15.51240505,0.0003565,70.0005,35.5235,271.9818,51.9396,-0.00021901,-0.00013016,0.0,0 STARLINK-5804,1 55788U 23028AZ  23233.50001157 -.00013016  00000-0 -21901-3 0  9999,2 55788  70.0005  35.5235 0003565 271.9818  51.9396 15.51240505 27454,6791.24,92.829,415.526,410.684,0.0
55788.0,STARLINK-5804,PAYLOAD,2023-08-22 14:00:01,15.51315729,0.0003532,70.0005,32.5619,270.2128,341.6675,-0.018047,-0.00974195,0.0,0 STARLINK-5804,1 55788U 23028AZ  23234.58334491 -.00974195  00000-0 -18047-1 0  9997,2 55788  70.0005  32.5619 0003532 270.2128 341.6675 15.51315729 27626,6791.021,92.824,415.284,410.487,0.0
55788.0,STARLINK-5804,PAYLOAD,2023-08-23 06:00:00,15.49936554,0.0003545,70.0003,30.7407,272.1611,100.1205,-0.016815,-0.00861044,0.0,0 STARLINK-5804,1 55788U 23028AZ  23235.25001157 -.00861044  00000-0 -16815-1 0  9991,2 55788  70.0003  30.7407 0003545 272.1611 100.1205 15.49936554 27721,6795.048,92.907,419.322,414.505,0.0
55788.0,STARLINK-5804,PAYLOAD,2023-08-24 22:00:00,15.46708439,0.0003449,70.0,26.2035,277.1715,22.3304,-0.019848,-0.0091574,0.0,0 STARLINK-5804,1 55788U 23028AZ  23236.91667824 -.00915740  00000-0 -19848-1 0  9996,2 55788  70.0000  26.2035 0003449 277.1715  22.3304 15.46708439  5916,6804.5,93.101,428.712,424.018,0.0
55788.0,STARLINK-5804,PAYLOAD,2023-08-25 14:00:01,15.45428126,0.0003552,70.0001,24.3952,276.3235,132.5872,-0.021827,-0.00959645,0.0,0 STARLINK-5804,1 55788U 23028AZ  23237.58334491 -.00959645  00000-0 -21827-1 0  9993,2 55788  70.0001  24.3952 0003552 276.3235 132.5872 15.45428126 28085,6808.257,93.178,432.541,427.704,0.0
55788.0,STARLINK-5804,PAYLOAD,2023-08-26 00:00:02,15.44614492,0.0003336,69.9996,23.2664,278.615,287.1581,-0.022689,-0.00969194,0.0,0 STARLINK-5804,1 55788U 23028AZ  23238.00002315 -.00969194  00000-0 -22689-1 0  9995,2 55788  69.9996  23.2664 0003336 278.6150 287.1581 15.44614492  5995,6810.648,93.227,434.785,430.241,0.0
55788.0,STARLINK-5804,PAYLOAD,2023-08-26 06:00:00,15.44056185,0.0003368,69.9998,22.59,274.6941,240.5245,-0.020032,-0.00838238,0.0,0 STARLINK-5804,1 55788U 23028AZ  23238.25001157 -.00838238  00000-0 -20032-1 0  9999,2 55788  69.9998  22.5900 0003368 274.6941 240.5245 15.44056185 28186,6812.29,93.261,436.449,431.86,0.0
55788.0,STARLINK-5804,PAYLOAD,2023-08-26 14:00:01,15.43463387,0.0003441,70.0001,21.6887,276.1271,291.0454,-0.023048,-0.00948581,0.0,0 STARLINK-5804,1 55788U 23028AZ  23238.58334491 -.00948581  00000-0 -23048-1 0  9998,2 55788  70.0001  21.6887 0003441 276.1271 291.0454 15.43463387  5984,6814.034,93.297,438.244,433.554,0.0
55788.0,STARLINK-5804,PAYLOAD,2023-08-26 22:00:00,15.42795628,0.0003539,69.9995,20.7882,279.1294,339.2347,-0.022798,-0.0091985,0.0,0 STARLINK-5804,1 55788U 23028AZ  23238.91667824 -.00919850  00000-0 -22798-1 0  9992,2 55788  69.9995  20.7882 0003539 279.1294 339.2347 15.42795628 28294,6816.0,93.337,440.277,435.453,0.0
55788.0,STARLINK-5804,PAYLOAD,2023-08-27 14:00:01,15.41506755,0.000359,70.0001,18.99,276.6309,81.7588,-0.02462,-0.00948736,0.0,0 STARLINK-5804,1 55788U 23028AZ  23239.58334491 -.00948736  00000-0 -24620-1 0  9998,2 55788  70.0001  18.9900 0003590 276.6309  81.7588 15.41506755  5933,6819.799,93.415,444.112,439.215,0.0
